LEMUR-2-LLOYD           
1 60577U 24149DP  26068.46001441  .00012007  00000+0  80143-3 0  9995
2 60577  97.6780 149.6779 0005186 125.6096 234.5616 15.07168338 85367
STARLINK-34343          
1 64157U 25112M   26068.72152008  .00002225  00000+0  15851-3 0  9994
2 64157  97.6018 121.5647 0001733  97.9633 262.1791 15.05623506 43315
